{
  "type": "FeatureCollection",
  "features": [
    {
      "type": "Feature",
      "properties": {
        "norad_id": 67132,
        "name": "CZ-4B R/B",
        "group": "last-30-days",
        "lat": 10.909712861164623,
        "lon": -111.67404125938211,
        "alt_km": 488.6597587998849,
        "timestamp": "2025-12-18T13:51:48.382518+00:00",
        "meta_object_name": "CZ-4B R/B",
        "meta_object_id": "2025-300B",
        "meta_epoch": "2025-12-17T15:38:50.646912",
        "meta_mean_motion": 15.63708593,
        "meta_eccentricity": 0.01750896,
        "meta_inclination": 97.5588,
        "meta_ra_of_asc_node": 65.868,
        "meta_arg_of_pericenter": 12.9628,
        "meta_mean_anomaly": 347.6044,
        "meta_ephemeris_type": 0,
        "meta_classification_type": "U",
        "meta_norad_cat_id": 67132,
        "meta_element_set_no": 999,
        "meta_rev_at_epoch": 24,
        "meta_bstar": 0.00019397917,
        "meta_mean_motion_dot": 0.00040269,
        "meta_mean_motion_ddot": 2.639954e-06,
        "tle_line1": "1 67132U 25300B   25351.65197508  .00040269  26400-5  19398-3 0  9997",
        "tle_line2": "2 67132  97.5588  65.8680 0175089  12.9628 347.6044 15.63708593   245"
      },
      "geometry": {
        "type": "Point",
        "coordinates": [
          -111.67404125938211,
          10.909712861164623
        ]
      }
    },
    {
      "type": "Feature",
      "properties": {
        "norad_id": 67160,
        "name": "GALILEO A",
        "group": "last-30-days",
        "lat": -54.229385904060884,
        "lon": 14.891187625989192,
        "alt_km": 22930.19309971463,
        "timestamp": "2025-12-18T13:51:48.382531+00:00",
        "meta_object_name": "GALILEO A",
        "meta_object_id": "2025-302A",
        "meta_epoch": "2025-12-18T03:30:19.807776",
        "meta_mean_motion": 1.72901431,
        "meta_eccentricity": 0.00080329,
        "meta_inclination": 54.2385,
        "meta_ra_of_asc_node": 107.247,
        "meta_arg_of_pericenter": 237.4965,
        "meta_mean_anomaly": 122.3848,
        "meta_ephemeris_type": 0,
        "meta_classification_type": "U",
        "meta_norad_cat_id": 67160,
        "meta_element_set_no": 999,
        "meta_rev_at_epoch": 2,
        "meta_bstar": 0,
        "meta_mean_motion_dot": -7e-08,
        "meta_mean_motion_ddot": 0,
        "tle_line1": "1 67160U 25302A   25352.14606259 -.00000007  00000+0  00000+0 0  9998",
        "tle_line2": "2 67160  54.2385 107.2470 0008032 237.4965 122.3848  1.72901431    27"
      },
      "geometry": {
        "type": "Point",
        "coordinates": [
          14.891187625989192,
          -54.229385904060884
        ]
      }
    },
    {
      "type": "Feature",
      "properties": {
        "norad_id": 67161,
        "name": "GALILEO B",
        "group": "last-30-days",
        "lat": -54.2304887357911,
        "lon": 15.32507965826596,
        "alt_km": 22929.72479163465,
        "timestamp": "2025-12-18T13:51:48.382545+00:00",
        "meta_object_name": "GALILEO B",
        "meta_object_id": "2025-302B",
        "meta_epoch": "2025-12-17T13:37:26.172192",
        "meta_mean_motion": 1.72965674,
        "meta_eccentricity": 0.00048649,
        "meta_inclination": 54.2314,
        "meta_ra_of_asc_node": 107.2469,
        "meta_arg_of_pericenter": 248.2865,
        "meta_mean_anomaly": 111.6205,
        "meta_ephemeris_type": 0,
        "meta_classification_type": "U",
        "meta_norad_cat_id": 67161,
        "meta_element_set_no": 999,
        "meta_rev_at_epoch": 2,
        "meta_bstar": 0,
        "meta_mean_motion_dot": -8e-08,
        "meta_mean_motion_ddot": 0,
        "tle_line1": "1 67161U 25302B   25351.56766403 -.00000008  00000+0  00000+0 0  9993",
        "tle_line2": "2 67161  54.2314 107.2469 0004864 248.2865 111.6205  1.72965674    23"
      },
      "geometry": {
        "type": "Point",
        "coordinates": [
          15.32507965826596,
          -54.2304887357911
        ]
      }
    },
    {
      "type": "Feature",
      "properties": {
        "norad_id": 67162,
        "name": "ARIANE 6 R/B",
        "group": "last-30-days",
        "lat": -54.24310571178039,
        "lon": 16.499078503388017,
        "alt_km": 22925.483044032,
        "timestamp": "2025-12-18T13:51:48.382556+00:00",
        "meta_object_name": "ARIANE 6 R/B",
        "meta_object_id": "2025-302C",
        "meta_epoch": "2025-12-18T03:29:05.112384",
        "meta_mean_motion": 1.73130383,
        "meta_eccentricity": 4.977e-05,
        "meta_inclination": 54.232,
        "meta_ra_of_asc_node": 107.26,
        "meta_arg_of_pericenter": 134.264,
        "meta_mean_anomaly": 225.699,
        "meta_ephemeris_type": 0,
        "meta_classification_type": "U",
        "meta_norad_cat_id": 67162,
        "meta_element_set_no": 999,
        "meta_rev_at_epoch": 6,
        "meta_bstar": 0,
        "meta_mean_motion_dot": -7e-08,
        "meta_mean_motion_ddot": 0,
        "tle_line1": "1 67162U 25302C   25352.14519806 -.00000007  00000+0  00000+0 0  9991",
        "tle_line2": "2 67162  54.2320 107.2600 0000497 134.2640 225.6990  1.73130383    64"
      },
      "geometry": {
        "type": "Point",
        "coordinates": [
          16.499078503388017,
          -54.24310571178039
        ]
      }
    }
  ]
}